COMMENT,ORIGINATOR,NORAD_CAT_ID,OBJECT_NAME,OBJECT_TYPE,CLASSIFICATION_TYPE,INTLDES,EPOCH,EPOCH_MICROSECONDS,MEAN_MOTION,ECCENTRICITY,INCLINATION,RA_OF_ASC_NODE,ARG_OF_PERICENTER,MEAN_ANOMALY,EPHEMERIS_TYPE,ELEMENT_SET_NO,REV_AT_EPOCH,BSTAR,MEAN_MOTION_DOT,MEAN_MOTION_DDOT,FILE,TLE_LINE0,TLE_LINE1,TLE_LINE2,OBJECT_ID,OBJECT_NUMBER,SEMIMAJOR_AXIS,PERIOD,APOGEE,PERIGEE,DECAYED
"GENERATED VIA SPACETRACK.ORG API","18 SPCS","55092","SPACEBEE-166","PAYLOAD","U","23001CM","2024-05-13 11:01:21","527616","15.468762","0.000947","97.4196","200.8264","256.8346","103.1847","0","999","7577","0.0020047","0.00102014","0","4316169","0 SPACEBEE-166","1 55092U 23001CM  24134.45927694  .00102014  00000-0  20047-2 0  9990","2 55092  97.4196 200.8264 0009470 256.8346 103.1847 15.46876200 75774","2023-001CM","55092","6804.008","93.091","432.316","419.429","0"
"GENERATED VIA SPACETRACK.ORG API","18 SPCS","55092","SPACEBEE-166","PAYLOAD","U","23001CM","2024-05-13 15:40:48","698688","15.46911669","0.0009507","97.4196","201.0252","256.3445","103.6746","0","999","7580","0.0019961","0.00101697","0","4316420","0 SPACEBEE-166","1 55092U 23001CM  24134.65334142  .00101697  00000-0  19961-2 0  9991","2 55092  97.4196 201.0252 0009507 256.3445 103.6746 15.46911669 75806","2023-001CM","55092","6803.904","93.089","432.237","419.300","0"
"GENERATED VIA SPACETRACK.ORG API","18 SPCS","55092","SPACEBEE-166","PAYLOAD","U","23001CM","2024-05-14 04:05:58","984512","15.47009401","0.0009642","97.4198","201.5551","254.0965","105.9222","0","999","7588","0.0016166","0.00082426","0","4316633","0 SPACEBEE-166","1 55092U 23001CM  24135.17082158  .00082426  00000-0  16166-2 0  9998","2 55092  97.4198 201.5551 0009642 254.0965 105.9222 15.47009401 75882","2023-001CM","55092","6803.617","93.083","432.042","418.922","0"
"GENERATED VIA SPACETRACK.ORG API","18 SPCS","55092","SPACEBEE-166","PAYLOAD","U","23001CM","2024-05-14 04:05:58","984512","15.47009401","0.0009642","97.4198","201.5551","254.0965","105.9222","0","999","7588","0.0016166","0.00082426","0","4317118","0 SPACEBEE-166","1 55092U 23001CM  24135.17082158  .00082426  00000-0  16166-2 0  9998","2 55092  97.4198 201.5551 0009642 254.0965 105.9222 15.47009401 75882","2023-001CM","55092","6803.617","93.083","432.042","418.922","0"
"GENERATED VIA SPACETRACK.ORG API","18 SPCS","55092","SPACEBEE-166","PAYLOAD","U","23001CM","2024-05-15 03:23:03","505056","15.47189078","0.0009769","97.4197","202.5495","250.9345","109.0847","0","999","7603","0.001817","0.00093363","0","4317559","0 SPACEBEE-166","1 55092U 23001CM  24136.14101279  .00093363  00000-0  18170-2 0  9991","2 55092  97.4197 202.5495 0009769 250.9345 109.0847 15.47189078 76031","2023-001CM","55092","6803.090","93.072","431.601","418.310","0"
"GENERATED VIA SPACETRACK.ORG API","18 SPCS","55092","SPACEBEE-166","PAYLOAD","U","23001CM","2024-05-15 03:23:03","505056","15.47189078","0.0009769","97.4197","202.5495","250.9345","109.0847","0","999","7603","0.001817","0.00093363","0","4318101","0 SPACEBEE-166","1 55092U 23001CM  24136.14101279  .00093363  00000-0  18170-2 0  9991","2 55092  97.4197 202.5495 0009769 250.9345 109.0847 15.47189078 76031","2023-001CM","55092","6803.090","93.072","431.601","418.310","0"
"GENERATED VIA SPACETRACK.ORG API","18 SPCS","55092","SPACEBEE-166","PAYLOAD","U","23001CM","2024-05-15 17:21:13","396608","15.47309038","0.000981","97.4201","203.1468","249.3739","110.6459","0","999","7612","0.0021002","0.00108587","0","4318293","0 SPACEBEE-166","1 55092U 23001CM  24136.72307172  .00108587  00000-0  21002-2 0  9998","2 55092  97.4201 203.1468 0009810 249.3739 110.6459 15.47309038 76127","2023-001CM","55092","6802.739","93.065","431.277","417.930","0"
"GENERATED VIA SPACETRACK.ORG API","18 SPCS","55092","SPACEBEE-166","PAYLOAD","U","23001CM","2024-05-15 22:00:35","748288","15.47352809","0.0009885","97.4198","203.3449","248.8467","111.1727","0","999","7615","0.0021579","0.00111789","0","4318417","0 SPACEBEE-166","1 55092U 23001CM  24136.91708042  .00111789  00000-0  21579-2 0  9997","2 55092  97.4198 203.3449 0009885 248.8467 111.1727 15.47352809 76158","2023-001CM","55092","6802.611","93.062","431.200","417.751","0"
"GENERATED VIA SPACETRACK.ORG API","18 SPCS","55092","SPACEBEE-166","PAYLOAD","U","23001CM","2024-05-16 04:13:04","792224","15.47417514","0.0009949","97.4199","203.6101","247.9513","112.0681","0","999","7619","0.002186","0.00113527","0","4318945","0 SPACEBEE-166","1 55092U 23001CM  24137.17574991  .00113527  00000-0  21860-2 0  9995","2 55092  97.4199 203.6101 0009949 247.9513 112.0681 15.47417514 76198","2023-001CM","55092","6802.421","93.058","431.054","417.518","0"
"GENERATED VIA SPACETRACK.ORG API","18 SPCS","55092","SPACEBEE-166","PAYLOAD","U","23001CM","2024-05-16 04:13:04","792224","15.47417514","0.0009949","97.4199","203.6101","247.9513","112.0681","0","999","7619","0.002186","0.00113527","0","4319123","0 SPACEBEE-166","1 55092U 23001CM  24137.17574991  .00113527  00000-0  21860-2 0  9995","2 55092  97.4199 203.6101 0009949 247.9513 112.0681 15.47417514 76198","2023-001CM","55092","6802.421","93.058","431.054","417.518","0"
"GENERATED VIA SPACETRACK.ORG API","18 SPCS","55092","SPACEBEE-166","PAYLOAD","U","23001CM","2024-05-16 15:04:53","391936","15.47545845","0.0010009","97.4198","204.0746","247.0098","113.0096","0","999","7626","0.0029993","0.00157361","0","4319230","0 SPACEBEE-166","1 55092U 23001CM  24137.62839574  .00157361  00000-0  29993-2 0  9995","2 55092  97.4198 204.0746 0010009 247.0098 113.0096 15.47545845 76263","2023-001CM","55092","6802.045","93.051","430.718","417.102","0"
"GENERATED VIA SPACETRACK.ORG API","18 SPCS","55092","SPACEBEE-166","PAYLOAD","U","23001CM","2024-05-16 15:04:53","391936","15.47545845","0.0010009","97.4198","204.0746","247.0098","113.0096","0","999","7626","0.0029993","0.00157361","0","4319396","0 SPACEBEE-166","1 55092U 23001CM  24137.62839574  .00157361  00000-0  29993-2 0  9995","2 55092  97.4198 204.0746 0010009 247.0098 113.0096 15.47545845 76263","2023-001CM","55092","6802.045","93.051","430.718","417.102","0"
"GENERATED VIA SPACETRACK.ORG API","18 SPCS","55092","SPACEBEE-166","PAYLOAD","U","23001CM","2024-05-17 03:29:45","279744","15.47660837","0.0010145","97.42","204.6046","244.7539","115.266","0","999","7634","0.0018653","0.00097486","0","4319546","0 SPACEBEE-166","1 55092U 23001CM  24138.14566296  .00097486  00000-0  18653-2 0  9993","2 55092  97.4200 204.6046 0010145 244.7539 115.2660 15.47660837 76340","2023-001CM","55092","6801.708","93.044","430.473","416.673","0"
"GENERATED VIA SPACETRACK.ORG API","18 SPCS","55092","SPACEBEE-166","PAYLOAD","U","23001CM","2024-05-17 03:29:45","279744","15.47660837","0.0010145","97.42","204.6046","244.7539","115.266","0","999","7634","0.0018653","0.00097486","0","4320024","0 SPACEBEE-166","1 55092U 23001CM  24138.14566296  .00097486  00000-0  18653-2 0  9993","2 55092  97.4200 204.6046 0010145 244.7539 115.2660 15.47660837 76340","2023-001CM","55092","6801.708","93.044","430.473","416.673","0"
"GENERATED VIA SPACETRACK.ORG API","18 SPCS","55092","SPACEBEE-166","PAYLOAD","U","23001CM","2024-05-17 20:33:50","626080","15.47843244","0.0010222","97.4203","205.3344","242.8914","117.1294","0","999","7645","0.0023159","0.00122208","0","4320195","0 SPACEBEE-166","1 55092U 23001CM  24138.85683595  .00122208  00000-0  23159-2 0  9991","2 55092  97.4203 205.3344 0010222 242.8914 117.1294 15.47843244 76455","2023-001CM","55092","6801.174","93.033","429.991","416.086","0"
"GENERATED VIA SPACETRACK.ORG API","18 SPCS","55092","SPACEBEE-166","PAYLOAD","U","23001CM","2024-05-17 22:06:56","171808","15.47864005","0.0010255","97.4204","205.4006","242.5793","117.4415","0","999","7646","0.0023494","0.00124097","0","4320369","0 SPACEBEE-166","1 55092U 23001CM  24138.92148347  .00124097  00000-0  23494-2 0  9990","2 55092  97.4204 205.4006 0010255 242.5793 117.4415 15.47864005 76467","2023-001CM","55092","6801.113","93.031","429.952","416.003","0"
"GENERATED VIA SPACETRACK.ORG API","18 SPCS","55092","SPACEBEE-166","PAYLOAD","U","23001CM","2024-05-18 04:19:17","708448","15.47944726","0.0010254","97.4205","205.666","241.6826","118.339","0","999","7650","0.0024761","0.0013128","0","4320565","0 SPACEBEE-166","1 55092U 23001CM  24139.18006607  .00131280  00000-0  24761-2 0  9991","2 55092  97.4205 205.6660 0010254 241.6826 118.3390 15.47944726 76508","2023-001CM","55092","6800.876","93.027","429.715","415.768","0"
"GENERATED VIA SPACETRACK.ORG API","18 SPCS","55092","SPACEBEE-166","PAYLOAD","U","23001CM","2024-05-18 10:31:38","28576","15.48024731","0.0010232","97.4203","205.9322","240.8938","119.1288","0","999","7654","0.0026486","0.00140993","0","4320920","0 SPACEBEE-166","1 55092U 23001CM  24139.43863459  .00140993  00000-0  26486-2 0  9992","2 55092  97.4203 205.9322 0010232 240.8938 119.1288 15.48024731 76540","2023-001CM","55092","6800.642","93.022","429.465","415.549","0"
"GENERATED VIA SPACETRACK.ORG API","18 SPCS","55092","SPACEBEE-166","PAYLOAD","U","23001CM","2024-05-18 13:37:47","789472","15.48058001","0.0010259","97.4203","206.0646","240.5721","119.4506","0","999","7656","0.0023282","0.00123802","0","4321083","0 SPACEBEE-166","1 55092U 23001CM  24139.56791423  .00123802  00000-0  23282-2 0  9998","2 55092  97.4203 206.0646 0010259 240.5721 119.4506 15.48058001 76562","2023-001CM","55092","6800.545","93.020","429.386","415.433","0"
"GENERATED VIA SPACETRACK.ORG API","18 SPCS","55092","SPACEBEE-166","PAYLOAD","U","23001CM","2024-05-18 19:50:06","514656","15.48132764","0.0010332","97.4202","206.3296","239.6958","120.3271","0","999","7660","0.002308","0.00123037","0","4321432","0 SPACEBEE-166","1 55092U 23001CM  24139.82646429  .00123037  00000-0  23080-2 0  9998","2 55092  97.4202 206.3296 0010332 239.6958 120.3271 15.48132764 76602","2023-001CM","55092","6800.326","93.015","429.217","415.164","0"
